[{"OBJECT_NAME":"BEIDOU-3 M26 (C48)","OBJECT_ID":"2023-207B","EPOCH":"2026-02-21T02:43:59.321856","MEAN_MOTION":1.86229533,"ECCENTRICITY":0.00056405,"INCLINATION":55.6512,"RA_OF_ASC_NODE":66.2043,"ARG_OF_PERICENTER":283.5653,"MEAN_ANOMALY":76.4165,"EPHEMERIS_TYPE":0,"CLASSIFICATION_TYPE":"U","NORAD_CAT_ID":58655,"ELEMENT_SET_NO":999,"REV_AT_EPOCH":1466,"BSTAR":0,"MEAN_MOTION_DOT":-3e-08,"MEAN_MOTION_DDOT":0},{"OBJECT_NAME":"BEIDOU-3 M25 (C47)","OBJECT_ID":"2024-168B","EPOCH":"2026-02-20T03:48:02.957184","MEAN_MOTION":1.8622995,"ECCENTRICITY":0.00045483,"INCLINATION":54.577,"RA_OF_ASC_NODE":306.3117,"ARG_OF_PERICENTER":314.887,"MEAN_ANOMALY":241.4415,"EPHEMERIS_TYPE":0,"CLASSIFICATION_TYPE":"U","NORAD_CAT_ID":61186,"ELEMENT_SET_NO":999,"REV_AT_EPOCH":960,"BSTAR":0,"MEAN_MOTION_DOT":-3.4e-07,"MEAN_MOTION_DDOT":0},{"OBJECT_NAME":"BEIDOU-3 M27 (C49)","OBJECT_ID":"2024-168C","EPOCH":"2026-02-20T21:50:10.798944","MEAN_MOTION":1.86230056,"ECCENTRICITY":0.00028606,"INCLINATION":54.5717,"RA_OF_ASC_NODE":306.2688,"ARG_OF_PERICENTER":13.0595,"MEAN_ANOMALY":102.0791,"EPHEMERIS_TYPE":0,"CLASSIFICATION_TYPE":"U","NORAD_CAT_ID":61187,"ELEMENT_SET_NO":999,"REV_AT_EPOCH":709,"BSTAR":0,"MEAN_MOTION_DOT":-3.7e-07,"MEAN_MOTION_DDOT":0},{"OBJECT_NAME":"HST","OBJECT_ID":"1990-037B","EPOCH":"2026-02-20T12:27:47.538144","MEAN_MOTION":15.29189195,"ECCENTRICITY":0.00011088,"INCLINATION":28.4685,"RA_OF_ASC_NODE":157.1051,"ARG_OF_PERICENTER":279.2471,"MEAN_ANOMALY":80.7999,"EPHEMERIS_TYPE":0,"CLASSIFICATION_TYPE":"U","NORAD_CAT_ID":20580,"ELEMENT_SET_NO":999,"REV_AT_EPOCH":77068,"BSTAR":0.00022882163,"MEAN_MOTION_DOT":6.899e-05,"MEAN_MOTION_DDOT":0},{"OBJECT_NAME":"POLAR","OBJECT_ID":"1996-013A","EPOCH":"2026-02-19T23:07:04.804320","MEAN_MOTION":1.29845877,"ECCENTRICITY":0.6351546,"INCLINATION":79.7241,"RA_OF_ASC_NODE":228.3876,"ARG_OF_PERICENTER":213.0514,"MEAN_ANOMALY":83.0653,"EPHEMERIS_TYPE":0,"CLASSIFICATION_TYPE":"U","NORAD_CAT_ID":23802,"ELEMENT_SET_NO":999,"REV_AT_EPOCH":14333,"BSTAR":0,"MEAN_MOTION_DOT":2.72e-06,"MEAN_MOTION_DDOT":0},{"OBJECT_NAME":"SWAS","OBJECT_ID":"1998-071A","EPOCH":"2026-02-21T07:00:43.175232","MEAN_MOTION":15.08702682,"ECCENTRICITY":0.00029403,"INCLINATION":69.8968,"RA_OF_ASC_NODE":166.198,"ARG_OF_PERICENTER":52.5671,"MEAN_ANOMALY":307.576,"EPHEMERIS_TYPE":0,"CLASSIFICATION_TYPE":"U","NORAD_CAT_ID":25560,"ELEMENT_SET_NO":999,"REV_AT_EPOCH":47978,"BSTAR":0.00031914125,"MEAN_MOTION_DOT":4.915e-05,"MEAN_MOTION_DDOT":0},{"OBJECT_NAME":"CXO","OBJECT_ID":"1999-040B","EPOCH":"2026-02-22T00:31:06.133728","MEAN_MOTION":0.37809023,"ECCENTRICITY":0.80265194,"INCLINATION":54.2829,"RA_OF_ASC_NODE":120.1456,"ARG_OF_PERICENTER":310.7149,"MEAN_ANOMALY":0.619,"EPHEMERIS_TYPE":0,"CLASSIFICATION_TYPE":"U","NORAD_CAT_ID":25867,"ELEMENT_SET_NO":999,"REV_AT_EPOCH":1689,"BSTAR":0,"MEAN_MOTION_DOT":1.012e-05,"MEAN_MOTION_DDOT":0},{"OBJECT_NAME":"XMM-NEWTON","OBJECT_ID":"1999-066A","EPOCH":"2026-02-22T15:55:28.884000","MEAN_MOTION":0.5012661,"ECCENTRICITY":0.47182655,"INCLINATION":65.0633,"RA_OF_ASC_NODE":284.4839,"ARG_OF_PERICENTER":66.9382,"MEAN_ANOMALY":359.9197,"EPHEMERIS_TYPE":0,"CLASSIFICATION_TYPE":"U","NORAD_CAT_ID":25989,"ELEMENT_SET_NO":999,"REV_AT_EPOCH":2242,"BSTAR":0,"MEAN_MOTION_DOT":1.76e-06,"MEAN_MOTION_DDOT":0},{"OBJECT_NAME":"TERRA","OBJECT_ID":"1999-068A","EPOCH":"2026-02-21T06:41:47.713344","MEAN_MOTION":14.60995463,"ECCENTRICITY":0.00015284,"INCLINATION":97.963,"RA_OF_ASC_NODE":106.3377,"ARG_OF_PERICENTER":197.8564,"MEAN_ANOMALY":226.7262,"EPHEMERIS_TYPE":0,"CLASSIFICATION_TYPE":"U","NORAD_CAT_ID":25994,"ELEMENT_SET_NO":999,"REV_AT_EPOCH":39268,"BSTAR":8.6325066e-05,"MEAN_MOTION_DOT":3.79e-06,"MEAN_MOTION_DDOT":0},{"OBJECT_NAME":"CLUSTER II-FM7 (SAMBA)","OBJECT_ID":"2000-041A","EPOCH":"2026-02-21T02:13:29.055360","MEAN_MOTION":0.44801619,"ECCENTRICITY":0.8891072,"INCLINATION":148.8393,"RA_OF_ASC_NODE":33.218,"ARG_OF_PERICENTER":249.2471,"MEAN_ANOMALY":359.5516,"EPHEMERIS_TYPE":0,"CLASSIFICATION_TYPE":"U","NORAD_CAT_ID":26410,"ELEMENT_SET_NO":999,"REV_AT_EPOCH":1978,"BSTAR":0,"MEAN_MOTION_DOT":4.559e-05,"MEAN_MOTION_DDOT":0},{"OBJECT_NAME":"CLUSTER II-FM8 (TANGO)","OBJECT_ID":"2000-045B","EPOCH":"2026-02-18T01:30:32.808672","MEAN_MOTION":0.44405995,"ECCENTRICITY":0.8890045,"INCLINATION":149.0711,"RA_OF_ASC_NODE":33.5376,"ARG_OF_PERICENTER":249.457,"MEAN_ANOMALY":359.4915,"EPHEMERIS_TYPE":0,"CLASSIFICATION_TYPE":"U","NORAD_CAT_ID":26464,"ELEMENT_SET_NO":999,"REV_AT_EPOCH":1976,"BSTAR":0,"MEAN_MOTION_DOT":4.776e-05,"MEAN_MOTION_DDOT":0},{"OBJECT_NAME":"ODIN","OBJECT_ID":"2001-007A","EPOCH":"2026-02-21T00:36:37.033632","MEAN_MOTION":15.57010482,"ECCENTRICITY":0.00030178,"INCLINATION":97.4106,"RA_OF_ASC_NODE":87.4049,"ARG_OF_PERICENTER":184.0827,"MEAN_ANOMALY":176.0404,"EPHEMERIS_TYPE":0,"CLASSIFICATION_TYPE":"U","NORAD_CAT_ID":26702,"ELEMENT_SET_NO":999,"REV_AT_EPOCH":37124,"BSTAR":0.0005236538,"MEAN_MOTION_DOT":0.00037823,"MEAN_MOTION_DDOT":0},{"OBJECT_NAME":"TIMED","OBJECT_ID":"2001-055B","EPOCH":"2026-02-21T06:01:23.610144","MEAN_MOTION":14.94968367,"ECCENTRICITY":0.00027125,"INCLINATION":74.0671,"RA_OF_ASC_NODE":108.407,"ARG_OF_PERICENTER":294.5758,"MEAN_ANOMALY":65.5144,"EPHEMERIS_TYPE":0,"CLASSIFICATION_TYPE":"U","NORAD_CAT_ID":26998,"ELEMENT_SET_NO":999,"REV_AT_EPOCH":31349,"BSTAR":0.0001127047,"MEAN_MOTION_DOT":1.192e-05,"MEAN_MOTION_DDOT":0},{"OBJECT_NAME":"CORIOLIS","OBJECT_ID":"2003-001A","EPOCH":"2026-02-20T23:58:34.013856","MEAN_MOTION":14.19905472,"ECCENTRICITY":0.00138917,"INCLINATION":98.7161,"RA_OF_ASC_NODE":60.6454,"ARG_OF_PERICENTER":183.3105,"MEAN_ANOMALY":176.7982,"EPHEMERIS_TYPE":0,"CLASSIFICATION_TYPE":"U","NORAD_CAT_ID":27640,"ELEMENT_SET_NO":999,"REV_AT_EPOCH":19773,"BSTAR":7.4259888e-05,"MEAN_MOTION_DOT":1.14e-06,"MEAN_MOTION_DDOT":0},{"OBJECT_NAME":"SORCE","OBJECT_ID":"2003-004A","EPOCH":"2026-02-20T11:45:35.735616","MEAN_MOTION":15.02942116,"ECCENTRICITY":0.00181628,"INCLINATION":39.9896,"RA_OF_ASC_NODE":207.126,"ARG_OF_PERICENTER":291.9419,"MEAN_ANOMALY":67.9444,"EPHEMERIS_TYPE":0,"CLASSIFICATION_TYPE":"U","NORAD_CAT_ID":27651,"ELEMENT_SET_NO":999,"REV_AT_EPOCH":25433,"BSTAR":0.00023431868,"MEAN_MOTION_DOT":3.064e-05,"MEAN_MOTION_DDOT":0},{"OBJECT_NAME":"MOST","OBJECT_ID":"2003-031D","EPOCH":"2026-02-20T23:38:43.166112","MEAN_MOTION":14.21294235,"ECCENTRICITY":0.00090321,"INCLINATION":98.7083,"RA_OF_ASC_NODE":61.3174,"ARG_OF_PERICENTER":223.6272,"MEAN_ANOMALY":136.4192,"EPHEMERIS_TYPE":0,"CLASSIFICATION_TYPE":"U","NORAD_CAT_ID":27843,"ELEMENT_SET_NO":999,"REV_AT_EPOCH":17420,"BSTAR":4.7745522e-05,"MEAN_MOTION_DOT":6e-07,"MEAN_MOTION_DDOT":0},{"OBJECT_NAME":"SCISAT 1","OBJECT_ID":"2003-036A","EPOCH":"2026-02-21T06:31:03.775872","MEAN_MOTION":14.81274246,"ECCENTRICITY":0.00062006,"INCLINATION":73.9295,"RA_OF_ASC_NODE":41.6258,"ARG_OF_PERICENTER":141.908,"MEAN_ANOMALY":218.2536,"EPHEMERIS_TYPE":0,"CLASSIFICATION_TYPE":"U","NORAD_CAT_ID":27858,"ELEMENT_SET_NO":999,"REV_AT_EPOCH":21428,"BSTAR":0.00010052047,"MEAN_MOTION_DOT":7.48e-06,"MEAN_MOTION_DDOT":0}]