HST                     
1 20580U 90037B   26051.51930021  .00006899  00000+0  22882-3 0  9995
2 20580  28.4685 157.1051 0001108 279.2471  80.7999 15.29189195770682
POLAR                   
1 23802U 96013A   26050.96325005  .00000272  00000+0  00000+0 0  9996
2 23802  79.7241 228.3876 6351546 213.0514  83.0653  1.29845877143339
SWAS                    
1 25560U 98071A   26052.29216638  .00004915  00000+0  31914-3 0  9994
2 25560  69.8968 166.1980 0002940  52.5671 307.5760 15.08702682479780
CXO                     
1 25867U 99040B   26053.02159877  .00001012  00000+0  00000+0 0  9997
2 25867  54.2829 120.1456 8026519 310.7149   0.6190  0.37809023 16897
XMM-NEWTON              
1 25989U 99066A   26053.66352875  .00000176  00000+0  00000+0 0  9993
2 25989  65.0633 284.4839 4718265  66.9382 359.9197  0.50126610 22427
TERRA                   
1 25994U 99068A   26052.27902446  .00000379  00000+0  86325-4 0  9996
2 25994  97.9630 106.3377 0001528 197.8564 226.7262 14.60995463392680
CLUSTER II-FM7 (SAMBA)  
1 26410U 00041A   26052.09269740  .00004559  00000+0  00000+0 0  9991
2 26410 148.8393  33.2180 8891072 249.2471 359.5516  0.44801619 19784
CLUSTER II-FM8 (TANGO)  
1 26464U 00045B   26049.06287973  .00004776  00000+0  00000+0 0  9996
2 26464 149.0711  33.5376 8890045 249.4570 359.4915  0.44405995 19768
ODIN                    
1 26702U 01007A   26052.02542863  .00037823  00000+0  52365-3 0  9996
2 26702  97.4106  87.4049 0003017 184.0827 176.0404 15.57010482371241
TIMED                   
1 26998U 01055B   26052.25096771  .00001192  00000+0  11270-3 0  9993
2 26998  74.0671 108.4070 0002712 294.5758  65.5144 14.94968367313495
CORIOLIS                
1 27640U 03001A   26051.99900479  .00000114  00000+0  74260-4 0  9992
2 27640  98.7161  60.6454 0013891 183.3105 176.7982 14.19905472197730
SORCE                   
1 27651U 03004A   26051.48999694  .00003064  00000+0  23432-3 0  9999
2 27651  39.9896 207.1260 0018162 291.9419  67.9444 15.02942116254330
MOST                    
1 27843U 03031D   26051.98522183  .00000060  00000+0  47746-4 0  9990
2 27843  98.7083  61.3174 0009032 223.6272 136.4192 14.21294235174204
SCISAT 1                
1 27858U 03036A   26052.27157148  .00000748  00000+0  10052-3 0  9991
2 27858  73.9295  41.6258 0006200 141.9080 218.2536 14.81274246214287
BEIDOU-3 M26            
1 58655U 23207B   26052.11388104 -.00000003  00000+0  00000+0 0  9996
2 58655  55.6512  66.2043 0005640 283.5653  76.4165  1.86229533 14668
BEIDOU-3 M25            
1 61186U 24168B   26051.15836756 -.00000034  00000+0  00000+0 0  9994
2 61186  54.5770 306.3117 0004548 314.8870 241.4415  1.86229950  9603
BEIDOU-3 M27            
1 61187U 24168C   26051.90984721 -.00000037  00000+0  00000+0 0  9997
2 61187  54.5717 306.2688 0002860  13.0595 102.0791  1.86230056  7093
